{
  "type": "FeatureCollection",
  "features": [
    {
      "type": "Feature",
      "properties": {
        "norad_id": 28054,
        "name": "DMSP 5D-3 F16 (USA 172)",
        "group": "weather",
        "lat": 1.3150363651243502,
        "lon": -172.68813516061138,
        "alt_km": 850.1835423105376,
        "timestamp": "2025-12-15T14:57:57.486123+00:00",
        "meta_object_name": "DMSP 5D-3 F16 (USA 172)",
        "meta_object_id": "2003-048A",
        "meta_epoch": "2025-12-14T23:43:02.646048",
        "meta_mean_motion": 14.14424983,
        "meta_eccentricity": 0.00064287,
        "meta_inclination": 99.0045,
        "meta_ra_of_asc_node": 6.463,
        "meta_arg_of_pericenter": 313.7921,
        "meta_mean_anomaly": 231.4171,
        "meta_ephemeris_type": 0,
        "meta_classification_type": "U",
        "meta_norad_cat_id": 28054,
        "meta_element_set_no": 999,
        "meta_rev_at_epoch": 14344,
        "meta_bstar": 0.00010245256,
        "meta_mean_motion_dot": 1.51e-06,
        "meta_mean_motion_ddot": 0,
        "tle_line1": "1 28054U 03048A   25348.98822507  .00000151  00000+0  10245-3 0  9998",
        "tle_line2": "2 28054  99.0045   6.4630 0006428 313.7921 231.4171 14.14424983143448"
      },
      "geometry": {
        "type": "Point",
        "coordinates": [
          -172.68813516061138,
          1.3150363651243502
        ]
      }
    },
    {
      "type": "Feature",
      "properties": {
        "norad_id": 28912,
        "name": "METEOSAT-9 (MSG-2)",
        "group": "weather",
        "lat": -7.8296261847570285,
        "lon": -4.920544789078813,
        "alt_km": 35789.954886753476,
        "timestamp": "2025-12-15T14:57:57.486174+00:00",
        "meta_object_name": "METEOSAT-9 (MSG-2)",
        "meta_object_id": "2005-049B",
        "meta_epoch": "2025-12-14T20:28:58.105920",
        "meta_mean_motion": 1.00277785,
        "meta_eccentricity": 0.00034635,
        "meta_inclination": 8.9443,
        "meta_ra_of_asc_node": 55.9576,
        "meta_arg_of_pericenter": 190.3474,
        "meta_mean_anomaly": 190.418,
        "meta_ephemeris_type": 0,
        "meta_classification_type": "U",
        "meta_norad_cat_id": 28912,
        "meta_element_set_no": 999,
        "meta_rev_at_epoch": 515,
        "meta_bstar": 0,
        "meta_mean_motion_dot": 1.37e-06,
        "meta_mean_motion_ddot": 0,
        "tle_line1": "1 28912U 05049B   25348.85345030  .00000137  00000+0  00000+0 0  9999",
        "tle_line2": "2 28912   8.9443  55.9576 0003463 190.3474 190.4180  1.00277785  5154"
      },
      "geometry": {
        "type": "Point",
        "coordinates": [
          -4.920544789078813,
          -7.8296261847570285
        ]
      }
    },
    {
      "type": "Feature",
      "properties": {
        "norad_id": 29522,
        "name": "DMSP 5D-3 F17 (USA 191)",
        "group": "weather",
        "lat": 55.01729742073918,
        "lon": -172.34890807173767,
        "alt_km": 837.5745184292255,
        "timestamp": "2025-12-15T14:57:57.486200+00:00",
        "meta_object_name": "DMSP 5D-3 F17 (USA 191)",
        "meta_object_id": "2006-050A",
        "meta_epoch": "2025-12-14T23:06:24.955776",
        "meta_mean_motion": 14.14920568,
        "meta_eccentricity": 0.00094926,
        "meta_inclination": 98.7393,
        "meta_ra_of_asc_node": 354.3056,
        "meta_arg_of_pericenter": 218.0598,
        "meta_mean_anomaly": 141.9906,
        "meta_ephemeris_type": 0,
        "meta_classification_type": "U",
        "meta_norad_cat_id": 29522,
        "meta_element_set_no": 999,
        "meta_rev_at_epoch": 98636,
        "meta_bstar": 0.00012114838,
        "meta_mean_motion_dot": 1.91e-06,
        "meta_mean_motion_ddot": 0,
        "tle_line1": "1 29522U 06050A   25348.96278884  .00000191  00000+0  12115-3 0  9998",
        "tle_line2": "2 29522  98.7393 354.3056 0009492 218.0598 141.9906 14.14920568986366"
      },
      "geometry": {
        "type": "Point",
        "coordinates": [
          -172.34890807173767,
          55.01729742073918
        ]
      }
    },
    {
      "type": "Feature",
      "properties": {
        "norad_id": 32958,
        "name": "FENGYUN 3A",
        "group": "weather",
        "lat": -64.26278675241424,
        "lon": 90.63727718402913,
        "alt_km": 831.0087941756301,
        "timestamp": "2025-12-15T14:57:57.486211+00:00",
        "meta_object_name": "FENGYUN 3A",
        "meta_object_id": "2008-026A",
        "meta_epoch": "2025-12-14T20:53:41.662176",
        "meta_mean_motion": 14.19515277,
        "meta_eccentricity": 0.00078306,
        "meta_inclination": 98.6699,
        "meta_ra_of_asc_node": 288.3525,
        "meta_arg_of_pericenter": 303.7221,
        "meta_mean_anomaly": 56.3208,
        "meta_ephemeris_type": 0,
        "meta_classification_type": "U",
        "meta_norad_cat_id": 32958,
        "meta_element_set_no": 999,
        "meta_rev_at_epoch": 90925,
        "meta_bstar": 7.8981153e-05,
        "meta_mean_motion_dot": 1.23e-06,
        "meta_mean_motion_ddot": 0,
        "tle_line1": "1 32958U 08026A   25348.87062109  .00000123  00000+0  78981-4 0  9990",
        "tle_line2": "2 32958  98.6699 288.3525 0007830 303.7221  56.3208 14.19515277909256"
      },
      "geometry": {
        "type": "Point",
        "coordinates": [
          90.63727718402913,
          -64.26278675241424
        ]
      }
    },
    {
      "type": "Feature",
      "properties": {
        "norad_id": 35491,
        "name": "GOES 14",
        "group": "weather",
        "lat": 1.1064478658630232,
        "lon": -162.5729011639965,
        "alt_km": 35833.62750700702,
        "timestamp": "2025-12-15T14:57:57.486224+00:00",
        "meta_object_name": "GOES 14",
        "meta_object_id": "2009-033A",
        "meta_epoch": "2025-12-14T21:27:00.049248",
        "meta_mean_motion": 1.00096392,
        "meta_eccentricity": 6.472e-05,
        "meta_inclination": 1.2083,
        "meta_ra_of_asc_node": 85.3763,
        "meta_arg_of_pericenter": 167.9014,
        "meta_mean_anomaly": 41.1621,
        "meta_ephemeris_type": 0,
        "meta_classification_type": "U",
        "meta_norad_cat_id": 35491,
        "meta_element_set_no": 999,
        "meta_rev_at_epoch": 474,
        "meta_bstar": 0,
        "meta_mean_motion_dot": -4e-08,
        "meta_mean_motion_ddot": 0,
        "tle_line1": "1 35491U 09033A   25348.89375057 -.00000004  00000+0  00000+0 0  9996",
        "tle_line2": "2 35491   1.2083  85.3763 0000647 167.9014  41.1621  1.00096392  4745"
      },
      "geometry": {
        "type": "Point",
        "coordinates": [
          -162.5729011639965,
          1.1064478658630232
        ]
      }
    },
    {
      "type": "Feature",
      "properties": {
        "norad_id": 35951,
        "name": "DMSP 5D-3 F18 (USA 210)",
        "group": "weather",
        "lat": -10.18564855297503,
        "lon": -32.37991053577363,
        "alt_km": 843.5677399677488,
        "timestamp": "2025-12-15T14:57:57.486235+00:00",
        "meta_object_name": "DMSP 5D-3 F18 (USA 210)",
        "meta_object_id": "2009-057A",
        "meta_epoch": "2025-12-14T22:02:28.270464",
        "meta_mean_motion": 14.14770329,
        "meta_eccentricity": 0.00120255,
        "meta_inclination": 98.8836,
        "meta_ra_of_asc_node": 325.3082,
        "meta_arg_of_pericenter": 56.9928,
        "meta_mean_anomaly": 303.2399,
        "meta_ephemeris_type": 0,
        "meta_classification_type": "U",
        "meta_norad_cat_id": 35951,
        "meta_element_set_no": 999,
        "meta_rev_at_epoch": 83353,
        "meta_bstar": 0.00016798379,
        "meta_mean_motion_dot": 2.79e-06,
        "meta_mean_motion_ddot": 0,
        "tle_line1": "1 35951U 09057A   25348.91838276  .00000279  00000+0  16798-3 0  9991",
        "tle_line2": "2 35951  98.8836 325.3082 0012025  56.9928 303.2399 14.14770329833538"
      },
      "geometry": {
        "type": "Point",
        "coordinates": [
          -32.37991053577363,
          -10.18564855297503
        ]
      }
    },
    {
      "type": "Feature",
      "properties": {
        "norad_id": 36411,
        "name": "EWS-G2 (GOES 15)",
        "group": "weather",
        "lat": -0.7820965291945001,
        "lon": 10.455353026033281,
        "alt_km": 35794.148346499605,
        "timestamp": "2025-12-15T14:57:57.486247+00:00",
        "meta_object_name": "EWS-G2 (GOES 15)",
        "meta_object_id": "2010-008A",
        "meta_epoch": "2025-12-14T22:16:17.827104",
        "meta_mean_motion": 1.00270327,
        "meta_eccentricity": 0.00055943,
        "meta_inclination": 0.8193,
        "meta_ra_of_asc_node": 86.0768,
        "meta_arg_of_pericenter": 175.6576,
        "meta_mean_anomaly": 217.5708,
        "meta_ephemeris_type": 0,
        "meta_classification_type": "U",
        "meta_norad_cat_id": 36411,
        "meta_element_set_no": 999,
        "meta_rev_at_epoch": 5779,
        "meta_bstar": 0,
        "meta_mean_motion_dot": 5.8e-07,
        "meta_mean_motion_ddot": 0,
        "tle_line1": "1 36411U 10008A   25348.92798411  .00000058  00000+0  00000+0 0  9998",
        "tle_line2": "2 36411   0.8193  86.0768 0005594 175.6576 217.5708  1.00270327 57793"
      },
      "geometry": {
        "type": "Point",
        "coordinates": [
          10.455353026033281,
          -0.7820965291945001
        ]
      }
    }
  ]
}